#aV2008 12 14  0  0   .00000000      96 DD+AD WGS84 FIT  NGA
## 1510       .00000000   900.00000000 54814  .0000000000000
+   31     2  3  4  5  6  7  8  9 10 11 12 13 14 15 16 17 18
+         19 20 21 22 23 24 25 26 27 28 29 30 31 32  0  0  0
+          0  0  0  0  0  0  0  0  0  0  0  0  0  0  0  0  0
+          0  0  0  0  0  0  0  0  0  0  0  0  0  0  0  0  0
+          0  0  0  0  0  0  0  0  0  0  0  0  0  0  0  0  0
++         0  0  0  0  0  0  0  0  0  0  0  0  0  0  0  0  0
++         0  0  0  0  0  0  0  0  0  0  0  0  0  0  0  0  0
++         0  0  0  0  0  0  0  0  0  0  0  0  0  0  0  0  0
++         0  0  0  0  0  0  0  0  0  0  0  0  0  0  0  0  0
++         0  0  0  0  0  0  0  0  0  0  0  0  0  0  0  0  0
%c cc cc ccc ccc cccc cccc cccc cccc ccccc ccccc ccccc ccccc
%c cc cc ccc ccc cccc cccc cccc cccc ccccc ccccc ccccc ccccc
%f  0.0000000  0.000000000  0.00000000000  0.000000000000000
%f  0.0000000  0.000000000  0.00000000000  0.000000000000000
%i    0    0    0    0      0      0      0      0         0
%i    0    0    0    0      0      0      0      0         0
/*      NGA, ST. LOUIS,MO.                                  
/*   EPHEMERIS COMPUTED FROM  3 DAYS OF DATA                
/* CCCCCCCCCCCCCCCCCCCCCCCCCCCCCCCCCCCCCCCCCCCCCCCCCCCCCCCCC
/* CCCCCCCCCCCCCCCCCCCCCCCCCCCCCCCCCCCCCCCCCCCCCCCCCCCCCCCCC
*  2008 12 14  7 15   .00000000                                                 
P  2   7155.743550  19259.750529  16904.797489    167.171231                    
V  2 -19194.821761 -10134.249543  19142.220901      -.022337                    
P  3   -762.163029 -17539.952478 -20138.401037    324.517582                    
V  3  21919.267708 -12416.861575  10491.784705       .051700                    
P  4  -8311.004462  13174.597053  21383.605185   -264.183851                    
V  4 -22966.965131 -15171.807828    788.426165      -.127458                    
P  5  14534.623888   9904.482300  19641.834314   -384.936741                    
V  5   -463.008678  25636.520601 -12277.137402       .180465                    
P  6   5099.177508 -18348.939487 -18322.735065    122.157315                    
V  6  21700.956482  -9828.858396  15741.227625      -.096383                    
P  7 -22722.840515  -4055.223383 -13255.488382     23.532266                    
V  7 -12829.406530 -10962.339985  25275.547413       .000391                    
P  8 -15200.377494   6047.824988 -21094.779490   -182.034315                    
V  8 -20951.110427 -16157.496157  10011.398643      -.011847                    
P  9  21558.679446  15464.792796  -2814.175602     29.600344                    
V  9  -3534.735619    458.140465 -31719.561969       .019065                    
P 10   2041.554058  25629.064769  -6060.077761     -8.289301                    
V 10  -3598.886262   7300.062133  30715.093782      -.003976                    
P 11 -24046.217408 -11548.745371  -2161.278845     13.315949                    
V 11   4092.888229  -3386.935005 -29728.010341      -.009648                    
P 12  12074.983590  14521.732010  18788.820766   -333.949758                    
V 12  -2829.083453  23522.074741 -16328.227746       .028381                    
P 13 -24338.613429   3561.332667   9897.273381    281.015320                    
V 13  11018.018081  -6500.094932  29106.139673       .014429                    
P 14  18656.073517 -15897.534822  10209.985711   -182.099956                    
V 14  12367.577074  -3700.720032 -28802.399298       .049928                    
P 15  10514.343918  11579.417244 -21438.087188   -226.385786                    
V 15 -24081.172372  12883.332735  -4806.210874      -.059620                    
P 16   2476.663952 -26322.279271    465.255297     89.074137                    
V 16   2747.460169    750.905252  32035.070505      -.025460                    
P 17 -20267.519321  15398.411053   7292.645210     42.028687                    
V 17  -9573.245928   1431.992337 -29988.059293       .006071                    
P 18  15338.984409  -7003.126130 -20230.005876   -103.253062                    
V 18  -1187.168997  26305.421591 -10263.644864       .037682                    
P 19 -11620.660000 -11251.198921 -21040.464105     34.917092                    
V 19  24577.087766 -10795.183255  -7560.399853      -.003338                    
P 20 -13801.935891 -11100.167727  19688.034328     96.448222                    
V 20   2339.454898 -25224.868724 -12462.370383      -.010497                    
P 21  21183.381024    181.437267 -16161.067866     38.459227                    
V 21  15891.122467  13528.129249  20082.095134      -.016613                    
P 22  11854.220712 -19355.389169 -13587.921642    208.132321                    
V 22    940.579433  17768.265352 -24261.212162      -.004077                    
P 23 -20398.139606  -2823.927493  16876.514419    382.649797                    
V 23  18547.783994 -10753.906184  20297.231948       .009583                    
P 24  22772.965164  12327.563257  -5064.546016    149.145042                    
V 24   3418.308444   6597.302079  30841.450044       .032564                    
P 25 -24312.351933  -8228.343312  -6092.947758     98.934047                    
V 25  -5987.935974  -6270.536713  30746.160154       .285930                    
P 26   4036.220465  14257.421441 -22515.574128     26.063800                    
V 26 -25176.552299  10608.959935   2769.919873       .039701                    
P 27 -17961.794652   4165.464066 -18510.984941      7.791241                    
V 27 -20773.548546 -13654.962958  16390.587371       .030081                    
P 28 -12094.563052  17647.768592 -15113.922885    -23.742060                    
V 28   -437.322194 -20164.705985 -22923.770432       .000208                    
P 29  24057.362341  -2809.185808  10962.723630    -24.955072                    
V 29 -11420.253873   8105.607830  27427.002936       .021230                    
P 30  15266.103971   -132.439501  21374.025240    113.517663                    
V 30   -463.582034  28030.933591    579.090176       .022794                    
P 31   4906.999762 -14637.694921  21812.135596    -43.388332                    
V 31  22917.473267  14611.262709   4807.591748      -.017126                    
P 32  -9032.882592 -18858.453832  16926.923873    309.823985                    
V 32   4422.143356 -20166.858433 -20407.940759      -.020334                    
EOF
